OBJECT_NAME,OBJECT_ID,EPOCH,MEAN_MOTION,ECCENTRICITY,INCLINATION,RA_OF_ASC_NODE,ARG_OF_PERICENTER,MEAN_ANOMALY,EPHEMERIS_TYPE,CLASSIFICATION_TYPE,NORAD_CAT_ID,ELEMENT_SET_NO,REV_AT_EPOCH,BSTAR,MEAN_MOTION_DOT,MEAN_MOTION_DDOT
ONEWEB-0395,2021-132G,2026-07-04T18:59:53.472768,13.11416093,.00020739,87.8877,17.5615,86.5725,273.5640,0,U,50475,999,21802,-.17450315E-2,-.606E-5,0
ONEWEB-0396,2021-132H,2026-07-04T20:18:55.303488,13.18685785,.00017649,87.9188,331.9427,91.1517,268.9818,0,U,50476,999,22396,.14474103E-3,.7E-6,0
ONEWEB-0397,2021-132J,2026-07-04T15:12:59.076576,13.18686301,.00016471,87.9187,331.9848,91.1414,268.9907,0,U,50477,999,22391,.98318747E-4,.52E-6,0
ONEWEB-0398,2021-132K,2026-07-04T05:24:27.013824,13.11414645,.00021515,87.8884,17.6662,91.1355,269.0020,0,U,50478,999,21784,.98692259E-3,.362E-5,0
ONEWEB-0399,2021-132L,2026-07-04T19:43:51.589632,13.11417362,.00017828,87.8888,17.5585,73.2549,286.8774,0,U,50479,999,21791,.13343347E-2,.486E-5,0
ONEWEB-0400,2021-132M,2026-07-04T20:09:12.484512,13.18686144,.00020274,87.9186,331.9338,97.4108,262.7255,0,U,50480,999,22393,.68681079E-4,.4E-6,0
ONEWEB-0401,2021-132N,2026-07-04T15:46:58.899360,13.18686270,.00016497,87.9189,331.9675,99.2981,260.8338,0,U,50481,999,22391,.33568493E-3,.145E-5,0
ONEWEB-0402,2021-132P,2026-07-04T20:21:20.749248,13.18686794,.00013803,87.9186,331.9184,100.4040,259.7248,0,U,50482,999,22396,.10376895E-3,.54E-6,0
ONEWEB-0403,2021-132Q,2026-07-04T20:57:46.365120,13.18685577,.00018783,87.9185,331.9377,91.5734,268.5614,0,U,50483,999,22392,.1399569E-4,.18E-6,0
ONEWEB-0404,2021-132R,2026-07-04T19:16:58.469664,13.11417361,.00019909,87.8882,17.5597,79.8368,280.2984,0,U,50484,999,21800,-.88608638E-3,-.301E-5,0
ONEWEB-0405,2021-132S,2026-07-04T15:49:23.104416,13.18686006,.00023305,87.9192,331.9655,100.7342,259.4052,0,U,50485,999,22429,-.31609575E-3,-.112E-5,0
ONEWEB-0406,2021-132T,2026-07-04T21:05:03.103296,13.18686263,.00019951,87.9184,331.9372,80.4139,279.7218,0,U,50486,999,22395,.65695018E-4,.39E-6,0
ONEWEB-0407,2021-132U,2026-07-04T15:27:32.965056,13.18688732,.00018358,87.9189,331.9765,102.5849,257.5488,0,U,50487,999,22386,.17157038E-3,.81E-6,0
ONEWEB-0409,2021-132V,2026-07-04T19:14:32.419968,13.11417603,.00020444,87.8888,17.5490,82.7763,277.3597,0,U,50488,999,21789,-.10231671E-2,-.35E-5,0
ONEWEB-0412,2021-132W,2026-07-04T20:38:20.537952,13.18686330,.00016644,87.9185,331.9416,100.3596,259.7724,0,U,50489,999,22398,-.21688468E-4,.4E-7,0
ONEWEB-0413,2021-132X,2026-07-04T20:45:38.059776,13.18687066,.00016245,87.9179,331.9379,103.7478,256.3835,0,U,50490,999,22392,-.11886544E-4,.8E-7,0
ONEWEB-0414,2021-132Y,2026-07-04T16:45:15.052032,13.18687129,.00016854,87.9187,331.9547,93.6410,266.4915,0,U,50491,999,22393,.27590251E-3,.122E-5,0
ONEWEB-0417,2021-132Z,2026-07-04T20:35:54.761280,13.18686705,.00019389,87.9179,331.9409,89.5360,270.5994,0,U,50492,999,22393,.18093427E-4,.2E-6,0
ONEWEB-0418,2021-132AA,2026-07-04T15:22:29.330400,13.18686304,.0001971,87.9185,331.9851,88.7827,271.3531,0,U,50493,999,22396,.89875575E-4,.48E-6,0
ONEWEB-0419,2021-132AB,2026-07-04T15:49:39.485856,13.18666698,.00021176,87.9189,331.9815,93.6628,266.4746,0,U,50494,999,22388,.20457109E-3,.94E-6,0
ONEWEB-0420,2021-132AC,2026-07-04T20:26:11.241600,13.18686740,.00018397,87.9181,331.9446,102.8230,257.3107,0,U,50495,999,22390,.19853034E-3,.91E-6,0
ONEWEB-0421,2021-132AD,2026-07-04T09:20:55.661568,13.18685304,.00015038,87.9180,332.0345,90.3399,269.7905,0,U,50496,999,22388,.9298302E-5,.17E-6,0
ONEWEB-0424,2021-132AE,2026-07-04T21:09:54.799200,13.18685965,.0002235,87.9188,331.9356,95.8431,264.2956,0,U,50497,999,22397,.22116733E-3,.1E-5,0
ONEWEB-0426,2021-132AF,2026-07-04T16:31:53.705856,13.18686031,.00016699,87.9187,331.9649,73.7753,286.3563,0,U,50498,999,22389,.27041303E-3,.12E-5,0
ONEWEB-0427,2021-132AG,2026-07-04T15:39:41.990112,13.18686395,.0001897,87.9190,331.9612,89.6674,270.4675,0,U,50499,999,22391,.3904786E-4,.28E-6,0
ONEWEB-0429,2021-132AH,2026-07-04T15:20:15.679104,13.18687187,.0001827,87.9180,331.9869,100.1233,260.0105,0,U,50500,999,22388,.15420844E-3,.74E-6,0
ONEWEB-0430,2021-132AJ,2026-07-04T20:31:03.664992,13.18687710,.00019376,87.9181,331.9425,104.3176,255.8172,0,U,50501,999,22395,.64993383E-4,.39E-6,0
ONEWEB-0432,2021-132AK,2026-07-04T22:00:03.000096,13.18693112,.0002254,87.9200,331.9163,101.5764,272.4048,0,U,50502,999,525,-.23580162E-2,-.917E-5,0
ONEWEB-0440,2021-132AL,2026-07-04T21:00:11.543904,13.18686557,.00015139,87.9190,331.9358,100.0259,260.1044,0,U,50503,999,22390,-.40619468E-4,-.3E-7,0
ONEWEB-0450,2021-132AM,2026-07-04T20:50:40.974720,13.18686305,.00018683,87.9179,331.9405,102.6688,257.4654,0,U,50504,999,22393,.17607301E-4,.2E-6,0
